NAYIF-1 (EO-88)         
1 42017U 17008BX  23080.16983201  .00092828  00000+0  13800-2 0  9995
2 42017  97.2253 149.2565 0002050 305.5370  54.5693 15.54845064339690
ZHUHAI-1 02 (CAS-4B)    
1 42759U 17034B   23080.55021808  .00011237  00000+0  59154-3 0  9994
2 42759  43.0170 242.2571 0011465 259.1903 212.4745 15.15589813318332
ZHUHAI-1 01 (CAS-4A)    
1 42761U 17034D   23080.50134755  .00011861  00000+0  62194-3 0  9999
2 42761  43.0164 241.0973 0012336 259.4702 204.1974 15.15678368318335
MAX VALIER SAT          
1 42778U 17036P   23080.32980289  .00023166  00000+0  69154-3 0  9994
2 42778  97.1694 117.4417 0010315  68.3124 291.9217 15.34570965319239
RADFXSAT (FOX-1B)       
1 43017U 17073E   23080.21382519  .00012219  00000+0  86944-3 0  9995
2 43017  97.6437 328.0439 0238092 359.8962   0.2164 14.84672245288125
FOX-1D (AO-92)          
1 43137U 18004AC  23080.45576346  .00034794  00000+0  88193-3 0  9992
2 43137  97.3360 159.0796 0006972 101.7489 258.4540 15.39606739288789
DIWATA-2B               
1 43678U 18084H   23080.40748625  .00002855  00000+0  27982-3 0  9998
2 43678  98.0046 222.7030 0010757  92.3325 267.9144 14.93041411239169
ES'HAIL 2               
1 43700U 18090A   23080.31021727  .00000127  00000+0  00000+0 0  9996
2 43700   0.0175 242.0328 0000932 128.5244 305.4870  1.00272489 15804
FOX-1CLIFF (AO-95)      
1 43770U 18099N   23080.40011007  .00007162  00000+0  59774-3 0  9994
2 43770  97.5848 144.3193 0015351  69.5132 290.7737 14.98768056234457
ITASAT 1                
1 43786U 18099AE  23080.12010646  .00006414  00000+0  53847-3 0  9992
2 43786  97.5854 145.0793 0015416  65.0698 295.2124 14.98580443234457
JY1SAT (JO-97)          
1 43803U 18099AX  23080.14427343  .00007202  00000+0  58749-3 0  9992
2 43803  97.5852 145.0161 0015524  57.8706 302.4021 14.99647425234499
UWE-4                   
1 43880U 18111E   23080.26466470  .00008427  00000+0  66390-3 0  9990
2 43880  97.6475 346.8421 0017691 107.6529 252.6628 15.00905609231175
NEXUS (FO-99)           
1 43937U 19003F   23080.00911772  .00049111  00000+0  10904-2 0  9990
2 43937  97.0995 108.8337 0014058 230.5718 129.4287 15.43449116232403
JAISAT-1                
1 44419U 19038F   23080.48178434  .00027398  00000+0  10749-2 0  9996
2 44419  97.6690  59.6042 0013092 244.8979 115.0900 15.25631257205140
DUCHIFAT-3              
1 44854U 19089C   23080.22755990  .00011838  00000+0  83107-3 0  9996
2 44854  36.9641 256.3646 0009948 323.5777 203.7454 15.04569410179571
CAS-6 (TIANQIN 1)       
1 44881U 19093C   23080.48155746  .00001779  00000+0  22888-3 0  9994
2 44881  97.8658 160.4247 0015032   9.4499 350.6988 14.82287571175805
RS-44 & BREEZE-KM R/B   
1 44909U 19096E   23080.42480003  .00000020  00000+0  32083-4 0  9996
2 44909  82.5220  46.2515 0218190  32.4234 329.0058 12.79719280150930
HUSKYSAT-1 (HO-107)     
1 45119U 19071J   23080.37602285  .00402209  00000+0  15082-2 0  9998
2 45119  51.6244 116.3325 0010145  53.6126 306.5813 15.86194991176462
BY70-2                  
1 45857U 20042B   23079.82413788  .00027285  00000+0  30690-2 0  9992
2 45857  97.9293 159.6525 0008759 289.7377  70.2749 14.86615275146392
SALSAT                  
1 46495U 20068K   23080.42537860  .00006376  00000+0  43204-3 0  9999
2 46495  97.7616  27.6095 0017734  61.8549 298.4467 15.06700227135852
BY70-3                  
1 46839U 20079N   23080.59631045  .00536813  00000+0  21550-2 0  9994
2 46839  97.1518 157.7641 0003934 261.7722 208.1142 15.85141869133249
RADFXSAT-2 (AO-109)     
1 47311U 21002C   23080.20804452  .00033265  00000+0  99575-3 0  9995
2 47311  60.6836  35.5659 0031147 127.2546 233.1395 15.33887609120765
UVSQ-SAT                
1 47438U 21006AB  23080.12200741  .00018662  00000+0  83302-3 0  9996
2 47438  97.3965 138.6273 0010729  39.3606 320.8407 15.21367719119246
DIY-1 (ARDUIQUBE)       
1 47963U 21022AH  23080.16602868  .00107464  00000+0  31293-2 0  9997
2 47963  97.5086 345.6301 0006627 236.4666 123.5944 15.34956574108985
XW-3 (CAS-9)            
1 50466U 21131B   23080.54969140  .00000895  00000+0  30575-3 0  9994
2 50466  98.5548 162.3697 0005099  56.2777 303.8896 14.38761786 64753
TEVEL-3                 
1 50988U 22002E   23080.43183047  .00023019  00000+0  10298-2 0  9995
2 50988  97.4440 148.1887 0009399 174.4251 242.8292 15.21260385 65408
TEVEL-8                 
1 50989U 22002F   23080.44690109  .00022918  00000+0  10271-2 0  9997
2 50989  97.4459 148.2527 0009602 173.6128 243.1671 15.21199654 65407
TEVEL-5                 
1 50998U 22002Q   23080.43320293  .00023873  00000+0  10465-2 0  9996
2 50998  97.4429 148.4818 0010722 170.3060 319.8298 15.21936545 65429
TEVEL-6                 
1 50999U 22002R   23080.43183728  .00023894  00000+0  10474-2 0  9990
2 50999  97.4426 148.4771 0010276 170.8591 319.2449 15.21942382 65421
TEVEL-1                 
1 51013U 22002AF  23080.43897285  .00022889  00000+0  10251-2 0  9994
2 51013  97.4445 148.1511 0009541 174.2028 241.5619 15.21224140 65404
TEVEL-7                 
1 51062U 22002CG  23080.44890139  .00022987  00000+0  10299-2 0  9991
2 51062  97.4448 148.2315 0009417 174.8380 243.1661 15.21209317 65407
TEVEL-4                 
1 51063U 22002CH  23080.46526751  .00023035  00000+0  10331-2 0  9992
2 51063  97.4449 148.2362 0009304 175.0356 313.2463 15.21174028 65401
TEVEL-2                 
1 51069U 22002CP  23080.30359137  .00023203  00000+0  10381-2 0  9995
2 51069  97.4439 148.0383 0009516 174.3509 250.7760 15.21256108 65386
GREENCUBE               
1 53106U 22080B   23080.11397462 -.00000003  00000+0  00000+0 0  9995
2 53106  70.1803 350.3243 0008309 206.6105 153.4129  6.42557126 16095
RS29S (SXC3-2110 CYCLO*)
1 53373U 22096D   23080.41905392  .00033118  00000+0  10362-2 0  9995
2 53373  97.4224 346.0402 0003612  85.5509  27.4398 15.33053994 34219
RS32S (SXC3-212 MONITO*)
1 53374U 22096E   23080.55097400  .00030699  00000+0  96867-3 0  9999
2 53374  97.4200 346.1527 0003890  82.4023  39.7822 15.32797697 34232
RS34S (SXC3-218 KUZBAS*)
1 53375U 22096F   23080.41678784  .00025952  00000+0  85123-3 0  9994
2 53375  97.4218 345.8927 0003710  89.9069  34.3342 15.31590075 34200
RS23S (SXC3-21 UTMN)    
1 53376U 22096G   23080.53159813  .00027764  00000+0  89977-3 0  9999
2 53376  97.4208 346.0439 0003772  83.7261  41.4083 15.31963265 34223
RS28S (SXC3-214 MIET-A*)
1 53377U 22096H   23080.47539834  .00025189  00000+0  82788-3 0  9990
2 53377  97.4220 345.9639 0003672  87.4224  18.1983 15.31529979 34216
RS26S (KAI-1)           
1 53378U 22096J   23080.58021014  .00021226  00000+0  71649-3 0  9991
2 53378  97.4233 345.9843 0003739  80.2021  38.8842 15.30703250 34227
RS19S (SXC3-219 ISOI)   
1 53381U 22096M   23080.45704840  .00026854  00000+0  86358-3 0  9991
2 53381  97.4214 346.1113 0005169  43.2665  11.5049 15.32211536 34225
RS21S (CUBESX-HSE-2)    
1 53383U 22096P   23080.52493231  .00027415  00000+0  87698-3 0  9992
2 53383  97.4214 346.2111 0005343  42.6773  82.7956 15.32376511 34236
RS30S (SXC3-217 SIREN)  
1 53384U 22096Q   23080.48682145  .00023829  00000+0  78105-3 0  9990
2 53384  97.4228 346.1020 0005388  39.3674  66.6371 15.31622036 34228
RS20S (GEOSCAN-EDELVEIS)
1 53385U 22096R   23080.46838295  .00035003  00000+0  10493-2 0  9990
2 53385  97.4204 346.4195 0005421  40.7864  73.3336 15.34393182 34275
RS33S (SXC3-215 VIZARD) 
1 53386U 22096S   23080.54592683  .00044081  00000+0  12407-2 0  9991
2 53386  97.4210 346.7758 0006562  37.4184  86.2016 15.36318516 34296
CAS-5A (FO-118)         
1 54684U 22167C   23080.45914873  .00016803  00000+0  99173-3 0  9998
2 54684  97.5457 218.8566 0013686 275.2614 175.9906 15.11526631 15412
